[{"OBJECT_NAME":"QIANFAN-1","OBJECT_ID":"2024-140A","EPOCH":"2026-03-07T15:27:10.059552","MEAN_MOTION":13.50999902,"ECCENTRICITY":0.00168929,"INCLINATION":88.9711,"RA_OF_ASC_NODE":290.498,"ARG_OF_PERICENTER":335.4946,"MEAN_ANOMALY":24.54,"EPHEMERIS_TYPE":0,"CLASSIFICATION_TYPE":"U","NORAD_CAT_ID":60379,"ELEMENT_SET_NO":999,"REV_AT_EPOCH":7881,"BSTAR":0.00013571699,"MEAN_MOTION_DOT":1.0e-6,"MEAN_MOTION_DDOT":0},{"OBJECT_NAME":"QIANFAN-2","OBJECT_ID":"2024-140B","EPOCH":"2026-03-07T14:21:52.603200","MEAN_MOTION":13.51004001,"ECCENTRICITY":0.00114481,"INCLINATION":88.9698,"RA_OF_ASC_NODE":290.3302,"ARG_OF_PERICENTER":308.1289,"MEAN_ANOMALY":51.883,"EPHEMERIS_TYPE":0,"CLASSIFICATION_TYPE":"U","NORAD_CAT_ID":60380,"ELEMENT_SET_NO":999,"REV_AT_EPOCH":7886,"BSTAR":0.00012633601,"MEAN_MOTION_DOT":9.4e-7,"MEAN_MOTION_DDOT":0},{"OBJECT_NAME":"QIANFAN-3","OBJECT_ID":"2024-140C","EPOCH":"2026-03-07T14:33:38.110176","MEAN_MOTION":13.51000004,"ECCENTRICITY":0.00128964,"INCLINATION":88.9691,"RA_OF_ASC_NODE":290.4556,"ARG_OF_PERICENTER":321.2307,"MEAN_ANOMALY":38.7918,"EPHEMERIS_TYPE":0,"CLASSIFICATION_TYPE":"U","NORAD_CAT_ID":60381,"ELEMENT_SET_NO":999,"REV_AT_EPOCH":7877,"BSTAR":0.00013932838,"MEAN_MOTION_DOT":1.02e-6,"MEAN_MOTION_DDOT":0},{"OBJECT_NAME":"QIANFAN-4","OBJECT_ID":"2024-140D","EPOCH":"2026-03-07T13:58:14.183904","MEAN_MOTION":13.51000371,"ECCENTRICITY":0.00117472,"INCLINATION":88.9715,"RA_OF_ASC_NODE":290.3772,"ARG_OF_PERICENTER":310.93,"MEAN_ANOMALY":49.0834,"EPHEMERIS_TYPE":0,"CLASSIFICATION_TYPE":"U","NORAD_CAT_ID":60382,"ELEMENT_SET_NO":999,"REV_AT_EPOCH":7889,"BSTAR":0.0001386208,"MEAN_MOTION_DOT":1.01e-6,"MEAN_MOTION_DDOT":0},{"OBJECT_NAME":"QIANFAN-5","OBJECT_ID":"2024-140E","EPOCH":"2026-03-07T15:09:21.993120","MEAN_MOTION":13.51002292,"ECCENTRICITY":0.00144838,"INCLINATION":88.969,"RA_OF_ASC_NODE":290.4783,"ARG_OF_PERICENTER":332.4179,"MEAN_ANOMALY":27.6203,"EPHEMERIS_TYPE":0,"CLASSIFICATION_TYPE":"U","NORAD_CAT_ID":60383,"ELEMENT_SET_NO":999,"REV_AT_EPOCH":7876,"BSTAR":0.00012084557,"MEAN_MOTION_DOT":9.0e-7,"MEAN_MOTION_DDOT":0},{"OBJECT_NAME":"QIANFAN-6","OBJECT_ID":"2024-140F","EPOCH":"2026-03-07T15:38:59.973792","MEAN_MOTION":13.51002172,"ECCENTRICITY":0.0011993,"INCLINATION":88.9716,"RA_OF_ASC_NODE":290.2452,"ARG_OF_PERICENTER":317.1178,"MEAN_ANOMALY":42.9037,"EPHEMERIS_TYPE":0,"CLASSIFICATION_TYPE":"U","NORAD_CAT_ID":60384,"ELEMENT_SET_NO":999,"REV_AT_EPOCH":7896,"BSTAR":0.00015429674,"MEAN_MOTION_DOT":1.12e-6,"MEAN_MOTION_DDOT":0},{"OBJECT_NAME":"QIANFAN-7","OBJECT_ID":"2024-140G","EPOCH":"2026-03-07T14:52:04.658304","MEAN_MOTION":14.27773771,"ECCENTRICITY":0.0016763,"INCLINATION":88.9729,"RA_OF_ASC_NODE":283.7531,"ARG_OF_PERICENTER":117.3223,"MEAN_ANOMALY":242.9681,"EPHEMERIS_TYPE":0,"CLASSIFICATION_TYPE":"U","NORAD_CAT_ID":60385,"ELEMENT_SET_NO":999,"REV_AT_EPOCH":8250,"BSTAR":0.0001462832,"MEAN_MOTION_DOT":3.76e-6,"MEAN_MOTION_DDOT":0},{"OBJECT_NAME":"QIANFAN-8","OBJECT_ID":"2024-140H","EPOCH":"2026-03-07T14:04:10.731648","MEAN_MOTION":13.51003631,"ECCENTRICITY":0.00155067,"INCLINATION":88.9718,"RA_OF_ASC_NODE":290.4908,"ARG_OF_PERICENTER":318.2453,"MEAN_ANOMALY":41.7514,"EPHEMERIS_TYPE":0,"CLASSIFICATION_TYPE":"U","NORAD_CAT_ID":60386,"ELEMENT_SET_NO":999,"REV_AT_EPOCH":7880,"BSTAR":0.00012833835,"MEAN_MOTION_DOT":9.5e-7,"MEAN_MOTION_DDOT":0},{"OBJECT_NAME":"QIANFAN-9","OBJECT_ID":"2024-140J","EPOCH":"2026-03-07T15:15:16.952832","MEAN_MOTION":13.50998382,"ECCENTRICITY":0.00151924,"INCLINATION":88.9716,"RA_OF_ASC_NODE":290.5594,"ARG_OF_PERICENTER":317.9024,"MEAN_ANOMALY":42.0959,"EPHEMERIS_TYPE":0,"CLASSIFICATION_TYPE":"U","NORAD_CAT_ID":60387,"ELEMENT_SET_NO":999,"REV_AT_EPOCH":7879,"BSTAR":0.00012295313,"MEAN_MOTION_DOT":9.1e-7,"MEAN_MOTION_DDOT":0},{"OBJECT_NAME":"QIANFAN-10","OBJECT_ID":"2024-140K","EPOCH":"2026-03-07T15:21:02.667744","MEAN_MOTION":13.50996835,"ECCENTRICITY":0.00131483,"INCLINATION":88.9725,"RA_OF_ASC_NODE":289.9142,"ARG_OF_PERICENTER":293.6429,"MEAN_ANOMALY":66.3342,"EPHEMERIS_TYPE":0,"CLASSIFICATION_TYPE":"U","NORAD_CAT_ID":60388,"ELEMENT_SET_NO":999,"REV_AT_EPOCH":7892,"BSTAR":0.00014098487,"MEAN_MOTION_DOT":1.03e-6,"MEAN_MOTION_DDOT":0},{"OBJECT_NAME":"QIANFAN-11","OBJECT_ID":"2024-140L","EPOCH":"2026-03-07T14:27:54.530208","MEAN_MOTION":13.51003652,"ECCENTRICITY":0.00132144,"INCLINATION":88.9652,"RA_OF_ASC_NODE":290.442,"ARG_OF_PERICENTER":318.5243,"MEAN_ANOMALY":41.4904,"EPHEMERIS_TYPE":0,"CLASSIFICATION_TYPE":"U","NORAD_CAT_ID":60389,"ELEMENT_SET_NO":999,"REV_AT_EPOCH":7857,"BSTAR":0.0001357415,"MEAN_MOTION_DOT":1.0e-6,"MEAN_MOTION_DDOT":0},{"OBJECT_NAME":"QIANFAN-12","OBJECT_ID":"2024-140M","EPOCH":"2026-03-07T14:57:32.640480","MEAN_MOTION":13.51001321,"ECCENTRICITY":0.00122782,"INCLINATION":88.9695,"RA_OF_ASC_NODE":290.5204,"ARG_OF_PERICENTER":327.8235,"MEAN_ANOMALY":32.2166,"EPHEMERIS_TYPE":0,"CLASSIFICATION_TYPE":"U","NORAD_CAT_ID":60390,"ELEMENT_SET_NO":999,"REV_AT_EPOCH":7870,"BSTAR":0.00011219427,"MEAN_MOTION_DOT":8.4e-7,"MEAN_MOTION_DDOT":0},{"OBJECT_NAME":"QIANFAN-13","OBJECT_ID":"2024-140N","EPOCH":"2026-03-07T14:16:01.771680","MEAN_MOTION":13.51001704,"ECCENTRICITY":0.00121813,"INCLINATION":88.9708,"RA_OF_ASC_NODE":290.6336,"ARG_OF_PERICENTER":330.8733,"MEAN_ANOMALY":29.1737,"EPHEMERIS_TYPE":0,"CLASSIFICATION_TYPE":"U","NORAD_CAT_ID":60391,"ELEMENT_SET_NO":999,"REV_AT_EPOCH":7872,"BSTAR":0.00010306328,"MEAN_MOTION_DOT":7.9e-7,"MEAN_MOTION_DDOT":0},{"OBJECT_NAME":"QIANFAN-14","OBJECT_ID":"2024-140P","EPOCH":"2026-03-07T14:51:28.792800","MEAN_MOTION":13.51001669,"ECCENTRICITY":0.00158418,"INCLINATION":88.9686,"RA_OF_ASC_NODE":290.5106,"ARG_OF_PERICENTER":328.9129,"MEAN_ANOMALY":31.1083,"EPHEMERIS_TYPE":0,"CLASSIFICATION_TYPE":"U","NORAD_CAT_ID":60392,"ELEMENT_SET_NO":999,"REV_AT_EPOCH":7873,"BSTAR":0.00014022812,"MEAN_MOTION_DOT":1.03e-6,"MEAN_MOTION_DDOT":0},{"OBJECT_NAME":"QIANFAN-15","OBJECT_ID":"2024-140Q","EPOCH":"2026-03-07T15:03:32.771232","MEAN_MOTION":13.50999468,"ECCENTRICITY":0.00112658,"INCLINATION":88.9709,"RA_OF_ASC_NODE":290.4864,"ARG_OF_PERICENTER":316.2095,"MEAN_ANOMALY":43.8162,"EPHEMERIS_TYPE":0,"CLASSIFICATION_TYPE":"U","NORAD_CAT_ID":60393,"ELEMENT_SET_NO":999,"REV_AT_EPOCH":7872,"BSTAR":0.00011653575,"MEAN_MOTION_DOT":8.7e-7,"MEAN_MOTION_DDOT":0},{"OBJECT_NAME":"QIANFAN-16","OBJECT_ID":"2024-140R","EPOCH":"2026-03-07T14:45:32.533632","MEAN_MOTION":13.50998119,"ECCENTRICITY":0.00139039,"INCLINATION":88.9713,"RA_OF_ASC_NODE":290.6104,"ARG_OF_PERICENTER":333.9266,"MEAN_ANOMALY":26.1184,"EPHEMERIS_TYPE":0,"CLASSIFICATION_TYPE":"U","NORAD_CAT_ID":60394,"ELEMENT_SET_NO":999,"REV_AT_EPOCH":7863,"BSTAR":0.00013422603,"MEAN_MOTION_DOT":9.9e-7,"MEAN_MOTION_DDOT":0},{"OBJECT_NAME":"QIANFAN-17","OBJECT_ID":"2024-140S","EPOCH":"2026-03-07T14:39:45.518400","MEAN_MOTION":13.51004826,"ECCENTRICITY":0.00141039,"INCLINATION":88.9724,"RA_OF_ASC_NODE":290.666,"ARG_OF_PERICENTER":327.0954,"MEAN_ANOMALY":32.9318,"EPHEMERIS_TYPE":0,"CLASSIFICATION_TYPE":"U","NORAD_CAT_ID":60395,"ELEMENT_SET_NO":999,"REV_AT_EPOCH":7959,"BSTAR":0.00013494695,"MEAN_MOTION_DOT":9.9e-7,"MEAN_MOTION_DDOT":0}]
