QIANFAN-1               
1 60379U 24140A   26066.64386643  .00000100  00000+0  13572-3 0  9997
2 60379  88.9711 290.4980 0016892 335.4946  24.5400 13.50999902 78819
QIANFAN-2               
1 60380U 24140B   26066.59852550  .00000094  00000+0  12634-3 0  9998
2 60380  88.9698 290.3302 0011448 308.1289  51.8830 13.51004001 78864
QIANFAN-3               
1 60381U 24140C   26066.60669109  .00000102  00000+0  13933-3 0  9990
2 60381  88.9691 290.4556 0012896 321.2307  38.7918 13.51000004 78775
QIANFAN-4               
1 60382U 24140D   26066.58210861  .00000101  00000+0  13862-3 0  9995
2 60382  88.9715 290.3772 0011747 310.9300  49.0834 13.51000371 78896
QIANFAN-5               
1 60383U 24140E   26066.63150455  .00000090  00000+0  12085-3 0  9997
2 60383  88.9690 290.4783 0014483 332.4179  27.6203 13.51002292 78767
QIANFAN-6               
1 60384U 24140F   26066.65208303  .00000112  00000+0  15430-3 0  9998
2 60384  88.9716 290.2452 0011993 317.1178  42.9037 13.51002172 78964
QIANFAN-7               
1 60385U 24140G   26066.61949836  .00000376  00000+0  14628-3 0  9998
2 60385  88.9729 283.7531 0016763 117.3223 242.9681 14.27773771 82501
QIANFAN-8               
1 60386U 24140H   26066.58623532  .00000095  00000+0  12834-3 0  9992
2 60386  88.9718 290.4908 0015506 318.2453  41.7514 13.51003631 78809
QIANFAN-9               
1 60387U 24140J   26066.63561288  .00000091  00000+0  12295-3 0  9995
2 60387  88.9716 290.5594 0015192 317.9024  42.0959 13.50998382 78791
QIANFAN-10              
1 60388U 24140K   26066.63961421  .00000103  00000+0  14098-3 0  9996
2 60388  88.9725 289.9142 0013148 293.6429  66.3342 13.50996835 78922
QIANFAN-11              
1 60389U 24140L   26066.60271447  .00000100  00000+0  13574-3 0  9991
2 60389  88.9652 290.4420 0013214 318.5243  41.4904 13.51003652 78579
QIANFAN-12              
1 60390U 24140M   26066.62329445  .00000084  00000+0  11219-3 0  9992
2 60390  88.9695 290.5204 0012278 327.8235  32.2166 13.51001321 78706
QIANFAN-13              
1 60391U 24140N   26066.59446495  .00000079  00000+0  10306-3 0  9994
2 60391  88.9708 290.6336 0012181 330.8733  29.1737 13.51001704 78725
QIANFAN-14              
1 60392U 24140P   26066.61908325  .00000103  00000+0  14023-3 0  9991
2 60392  88.9686 290.5106 0015841 328.9129  31.1083 13.51001669 78736
QIANFAN-15              
1 60393U 24140Q   26066.62746263  .00000087  00000+0  11654-3 0  9992
2 60393  88.9709 290.4864 0011265 316.2095  43.8162 13.50999468 78720
QIANFAN-16              
1 60394U 24140R   26066.61495988  .00000099  00000+0  13423-3 0  9996
2 60394  88.9713 290.6104 0013903 333.9266  26.1184 13.50998119 78632
QIANFAN-17              
1 60395U 24140S   26066.61094350  .00000099  00000+0  13495-3 0  9994
2 60395  88.9724 290.6660 0014103 327.0954  32.9318 13.51004826 79597
